STARLINK-2518
1 28333C 21036BK  21325.12465476  .00000382  00000-0  25623-4 0  3259
2 28333  53.0532 307.6777 0001778  53.6345  71.5593 15.06388470    10
